OBJECT_NAME,OBJECT_ID,EPOCH,MEAN_MOTION,ECCENTRICITY,INCLINATION,RA_OF_ASC_NODE,ARG_OF_PERICENTER,MEAN_ANOMALY,EPHEMERIS_TYPE,CLASSIFICATION_TYPE,NORAD_CAT_ID,ELEMENT_SET_NO,REV_AT_EPOCH,BSTAR,MEAN_MOTION_DOT,MEAN_MOTION_DDOT
STARLINK-36354,2026-032D,2026-06-19T12:31:29.470368,15.33448924,.0001767,97.2869,358.2066,87.4322,272.7123,0,U,67800,999,2056,.6890248E-3,.22238E-3,0
STARLINK-36773,2026-032E,2026-06-19T06:27:21.870432,15.33440995,.00016332,97.2877,357.9357,91.7076,268.4354,0,U,67801,999,2052,.45441204E-3,.14622E-3,0
STARLINK-36739,2026-032F,2026-06-19T12:07:59.877696,15.33447420,.00020014,97.2867,358.2281,90.1092,270.0380,0,U,67802,999,2056,.38045823E-3,.12229E-3,0
STARLINK-36768,2026-032G,2026-06-19T06:19:32.054016,15.33445157,.00021571,97.2869,357.9439,92.6408,267.5081,0,U,67803,999,2052,.3017557E-3,.968E-4,0
STARLINK-36792,2026-032H,2026-06-19T06:23:27.525984,15.33456334,.00036838,97.2849,357.9387,89.0937,271.0727,0,U,67804,999,2052,.56413605E-3,.18191E-3,0
STARLINK-36782,2026-032J,2026-06-19T11:44:30.419808,15.33444332,.00017442,97.2866,358.2514,79.3495,280.7944,0,U,67805,999,2056,.50140647E-3,.16147E-3,0
STARLINK-36389,2026-032K,2026-06-19T12:15:49.811616,15.33443632,.0001831,97.2874,358.2211,92.3518,267.7935,0,U,67806,999,2056,.57829532E-3,.1864E-3,0
STARLINK-36382,2026-032L,2026-06-19T12:11:54.736224,15.33448359,.00019624,97.2869,358.2228,91.0681,269.0787,0,U,67807,999,2056,.41261331E-3,.13271E-3,0
STARLINK-36811,2026-032M,2026-06-19T11:48:25.234272,15.33455221,.00018311,97.2858,358.2482,85.1502,274.9950,0,U,67808,999,2056,.62291924E-3,.20096E-3,0
STARLINK-36795,2026-032N,2026-06-19T12:27:34.592832,15.33448955,.00023516,97.2857,358.2088,68.9228,291.2266,0,U,67809,999,2056,.44758617E-3,.14405E-3,0
STARLINK-36807,2026-032P,2026-06-19T11:52:20.298432,15.33447552,.00016972,97.2860,358.2439,89.9944,270.1493,0,U,67810,999,2056,.56535702E-3,.18223E-3,0
STARLINK-36733,2026-032Q,2026-06-19T11:32:45.616128,15.33446990,.00013518,97.2860,358.2623,90.3267,269.8131,0,U,67811,999,2056,.77232576E-3,.24943E-3,0
STARLINK-36377,2026-032R,2026-06-19T11:28:50.801664,15.33448024,.00018037,97.2864,358.2637,80.1971,279.9475,0,U,67812,999,2056,.87390339E-3,.28247E-3,0
STARLINK-36732,2026-032S,2026-06-19T11:36:40.256928,15.33453780,.00016386,97.2865,358.2569,85.9465,274.1965,0,U,67813,999,2056,.42030694E-3,.13522E-3,0
STARLINK-36767,2026-032T,2026-06-19T12:19:46.122528,15.33390946,.00009027,97.2867,358.2156,107.4019,252.7322,0,U,67814,999,2056,.13918827E-3,.4413E-4,0
STARLINK-36797,2026-032U,2026-06-19T12:00:10.132992,15.33448205,.00019554,97.2863,358.2326,91.6372,268.5095,0,U,67815,999,2056,.41019369E-3,.13192E-3,0
STARLINK-36343,2026-032V,2026-06-19T06:43:01.638048,15.33447032,.00017976,97.2872,358.0761,89.5745,270.5703,0,U,67816,999,2053,.50376425E-3,.16225E-3,0
STARLINK-36756,2026-032W,2026-06-19T11:40:35.512032,15.33446885,.00016151,97.2868,358.2539,96.4800,263.6627,0,U,67817,999,2055,.44358267E-3,.14274E-3,0
STARLINK-36346,2026-032X,2026-06-19T19:10:51.115008,15.33454150,.0001858,97.2876,358.5926,106.3953,253.7494,0,U,67818,999,2061,.45295E-3,.1458E-3,0
STARLINK-36788,2026-032Y,2026-06-19T12:04:04.951776,15.33447516,.00019028,97.2869,358.2326,87.6264,272.5196,0,U,67819,999,2056,.70755965E-3,.22839E-3,0
STARLINK-36353,2026-032Z,2026-06-19T11:56:15.245952,15.33442816,.00017868,97.2860,358.2400,84.0926,276.0521,0,U,67820,999,2056,.67518185E-3,.21784E-3,0
STARLINK-36644,2026-033A,2026-06-19T02:17:55.736736,15.27598598,.00016131,43.0009,54.2905,267.9079,92.1588,0,U,67821,999,2018,.61717895E-3,.1677E-3,0
STARLINK-36643,2026-033B,2026-06-19T09:11:34.079712,15.27586595,.00014925,43.0006,53.0207,272.7677,87.3004,0,U,67822,999,2022,.44916376E-3,.12121E-3,0
STARLINK-36646,2026-033C,2026-06-19T08:43:48.587520,15.27590874,.00012545,43.0010,52.8623,263.1118,96.9591,0,U,67823,999,2022,.97424305E-3,.26653E-3,0
STARLINK-36647,2026-033D,2026-06-19T00:38:13.787808,15.27588966,.00012205,43.0009,54.6345,264.8600,95.2113,0,U,67824,999,2017,.75288754E-3,.20519E-3,0
STARLINK-36648,2026-033E,2026-06-19T09:37:15.020256,15.27595511,.00012538,43.0036,52.2674,307.3599,52.7138,0,U,67825,999,2023,.40227352E-3,.10829E-3,0
STARLINK-35865,2026-033F,2026-06-19T08:40:06.765888,15.27588590,.00007455,43.0009,52.8400,294.6252,65.4522,0,U,67826,999,2022,.98820675E-3,.27038E-3,0
STARLINK-36289,2026-033G,2026-06-19T09:20:49.160832,15.27597437,.00015382,43.0033,53.0631,272.8146,87.2529,0,U,67827,999,2022,.718185E-3,.19564E-3,0
STARLINK-36670,2026-033H,2026-06-19T09:15:17.232768,15.27578221,.00017307,43.0024,53.0325,266.1399,93.9254,0,U,67828,999,2022,.96310529E-3,.26334E-3,0
STARLINK-36144,2026-033J,2026-06-19T09:07:52.062816,15.27586282,.00014079,43.0005,52.9907,267.2998,92.7693,0,U,67829,999,2022,.68947015E-3,.18763E-3,0
