STARLINK-36354          
1 67800U 26032D   26170.52186887  .00022238  00000+0  68902-3 0  9999
2 67800  97.2869 358.2066 0001767  87.4322 272.7123 15.33448924 20561
STARLINK-36773          
1 67801U 26032E   26170.26900313  .00014622  00000+0  45441-3 0  9990
2 67801  97.2877 357.9357 0001633  91.7076 268.4354 15.33440995 20520
STARLINK-36739          
1 67802U 26032F   26170.50555414  .00012229  00000+0  38046-3 0  9990
2 67802  97.2867 358.2281 0002001  90.1092 270.0380 15.33447420 20563
STARLINK-36768          
1 67803U 26032G   26170.26356544  .00009680  00000+0  30176-3 0  9990
2 67803  97.2869 357.9439 0002157  92.6408 267.5081 15.33445157 20527
STARLINK-36792          
1 67804U 26032H   26170.26629081  .00018191  00000+0  56414-3 0  9990
2 67804  97.2849 357.9387 0003683  89.0937 271.0727 15.33456334 20526
STARLINK-36782          
1 67805U 26032J   26170.48924097  .00016147  00000+0  50141-3 0  9990
2 67805  97.2866 358.2514 0001744  79.3495 280.7944 15.33444332 20566
STARLINK-36389          
1 67806U 26032K   26170.51099319  .00018640  00000+0  57830-3 0  9997
2 67806  97.2874 358.2211 0001831  92.3518 267.7935 15.33443632 20565
STARLINK-36382          
1 67807U 26032L   26170.50827241  .00013271  00000+0  41261-3 0  9996
2 67807  97.2869 358.2228 0001962  91.0681 269.0787 15.33448359 20561
STARLINK-36811          
1 67808U 26032M   26170.49195873  .00020096  00000+0  62292-3 0  9994
2 67808  97.2858 358.2482 0001831  85.1502 274.9950 15.33455221 20566
STARLINK-36795          
1 67809U 26032N   26170.51915038  .00014405  00000+0  44759-3 0  9996
2 67809  97.2857 358.2088 0002351  68.9228 291.2266 15.33448955 20568
STARLINK-36807          
1 67810U 26032P   26170.49467938  .00018223  00000+0  56536-3 0  9994
2 67810  97.2860 358.2439 0001697  89.9944 270.1493 15.33447552 20564
STARLINK-36733          
1 67811U 26032Q   26170.48108352  .00024943  00000+0  77233-3 0  9999
2 67811  97.2860 358.2623 0001351  90.3267 269.8131 15.33446990 20560
STARLINK-36377          
1 67812U 26032R   26170.47836576  .00028247  00000+0  87390-3 0  9991
2 67812  97.2864 358.2637 0001803  80.1971 279.9475 15.33448024 20564
STARLINK-36732          
1 67813U 26032S   26170.48379927  .00013522  00000+0  42031-3 0  9998
2 67813  97.2865 358.2569 0001638  85.9465 274.1965 15.33453780 20563
STARLINK-36767          
1 67814U 26032T   26170.51372827  .00004413  00000+0  13919-3 0  9997
2 67814  97.2867 358.2156 0000902 107.4019 252.7322 15.33390946 20569
STARLINK-36797          
1 67815U 26032U   26170.50011728  .00013192  00000+0  41019-3 0  9993
2 67815  97.2863 358.2326 0001955  91.6372 268.5095 15.33448205 20564
STARLINK-36343          
1 67816U 26032V   26170.27988007  .00016225  00000+0  50376-3 0  9997
2 67816  97.2872 358.0761 0001797  89.5745 270.5703 15.33447032 20533
STARLINK-36756          
1 67817U 26032W   26170.48652213  .00014274  00000+0  44358-3 0  9993
2 67817  97.2868 358.2539 0001615  96.4800 263.6627 15.33446885 20557
STARLINK-36346          
1 67818U 26032X   26170.79920272  .00014580  00000+0  45295-3 0  9992
2 67818  97.2876 358.5926 0001858 106.3953 253.7494 15.33454150 20612
STARLINK-36788          
1 67819U 26032Y   26170.50283509  .00022839  00000+0  70756-3 0  9993
2 67819  97.2869 358.2326 0001902  87.6264 272.5196 15.33447516 20562
STARLINK-36353          
1 67820U 26032Z   26170.49739868  .00021784  00000+0  67518-3 0  9997
2 67820  97.2860 358.2400 0001786  84.0926 276.0521 15.33442816 20563
STARLINK-36644          
1 67821U 26033A   26170.09578399  .00016770  00000+0  61718-3 0  9990
2 67821  43.0009  54.2905 0001613 267.9079  92.1588 15.27598598 20181
STARLINK-36643          
1 67822U 26033B   26170.38303333  .00012121  00000+0  44916-3 0  9994
2 67822  43.0006  53.0207 0001492 272.7677  87.3004 15.27586595 20222
STARLINK-36646          
1 67823U 26033C   26170.36375680  .00026653  00000+0  97424-3 0  9994
2 67823  43.0010  52.8623 0001254 263.1118  96.9591 15.27590874 20229
STARLINK-36647          
1 67824U 26033D   26170.02654847  .00020519  00000+0  75289-3 0  9993
2 67824  43.0009  54.6345 0001220 264.8600  95.2113 15.27588966 20171
STARLINK-36648          
1 67825U 26033E   26170.40086829  .00010829  00000+0  40227-3 0  9992
2 67825  43.0036  52.2674 0001253 307.3599  52.7138 15.27595511 20233
STARLINK-35865          
1 67826U 26033F   26170.36118942  .00027038  00000+0  98821-3 0  9993
2 67826  43.0009  52.8400 0000745 294.6252  65.4522 15.27588590 20222
STARLINK-36289          
1 67827U 26033G   26170.38945788  .00019564  00000+0  71819-3 0  9995
2 67827  43.0033  53.0631 0001538 272.8146  87.2529 15.27597437 20229
STARLINK-36670          
1 67828U 26033H   26170.38561612  .00026334  00000+0  96311-3 0  9993
2 67828  43.0024  53.0325 0001730 266.1399  93.9254 15.27578221 20229
STARLINK-36144          
1 67829U 26033J   26170.38046369  .00018763  00000+0  68947-3 0  9992
2 67829  43.0005  52.9907 0001407 267.2998  92.7693 15.27586282 20221
